[{"OBJECT_NAME":"STARLINK-32683","OBJECT_ID":"2024-251P","EPOCH":"2026-03-09T22:39:11.292480","MEAN_MOTION":15.30228132,"ECCENTRICITY":0.00015389,"INCLINATION":53.1608,"RA_OF_ASC_NODE":334.3833,"ARG_OF_PERICENTER":147.6333,"MEAN_ANOMALY":212.4762,"EPHEMERIS_TYPE":0,"CLASSIFICATION_TYPE":"U","NORAD_CAT_ID":62445,"ELEMENT_SET_NO":999,"REV_AT_EPOCH":6798,"BSTAR":0.0010438519,"MEAN_MOTION_DOT":0.00030712,"MEAN_MOTION_DDOT":0},{"OBJECT_NAME":"CZ-6A DEB","OBJECT_ID":"2024-140UQ","EPOCH":"2026-03-09T14:36:35.114400","MEAN_MOTION":15.29987293,"ECCENTRICITY":0.0094347,"INCLINATION":89.0483,"RA_OF_ASC_NODE":279.5661,"ARG_OF_PERICENTER":66.0307,"MEAN_ANOMALY":295.0787,"EPHEMERIS_TYPE":0,"CLASSIFICATION_TYPE":"U","NORAD_CAT_ID":61327,"ELEMENT_SET_NO":999,"REV_AT_EPOCH":8299,"BSTAR":0.0015211,"MEAN_MOTION_DOT":0.00050856,"MEAN_MOTION_DDOT":0}]
